[
  {
    "OBJECT_NAME": "STARLINK-1624",
    "OBJECT_ID": "20057P",
    "EPOCH": "2025-11-11T08:00:03.000384",
    "MEAN_MOTION": 15.40968655,
    "ECCENTRICITY": 0.0004641,
    "INCLINATION": 53.0538,
    "RA_OF_ASC_NODE": 82.9082,
    "ARG_OF_PERICENTER": 309.0877,
    "MEAN_ANOMALY": 167.7418,
    "EPHEMERIS_TYPE": 0,
    "CLASSIFICATION_TYPE": "U",
    "NORAD_CAT_ID": 46130,
    "ELEMENT_SET_NO": 999,
    "REV_AT_EPOCH": 566,
    "BSTAR": 0.0044426,
    "MEAN_MOTION_DOT": 0.00190134,
    "MEAN_MOTION_DDOT": 0.0,
    "TLE_LINE1": "1 46130U 20057P   25315.33336806  .00190134  00000+0  44426-2 0  9995",
    "TLE_LINE2": "2 46130  53.0538  82.9082 0004641 309.0877 167.7418 15.40968655  5668",
    "COMMENT": "Grouped by shell and plane from TLE"
  },
  {
    "OBJECT_NAME": "STARLINK-30424",
    "OBJECT_ID": "23141T",
    "EPOCH": "2025-11-11T02:40:59.657376",
    "MEAN_MOTION": 15.30192453,
    "ECCENTRICITY": 0.0001725,
    "INCLINATION": 53.1604,
    "RA_OF_ASC_NODE": 88.9047,
    "ARG_OF_PERICENTER": 87.7041,
    "MEAN_ANOMALY": 272.4157,
    "EPHEMERIS_TYPE": 0,
    "CLASSIFICATION_TYPE": "U",
    "NORAD_CAT_ID": 57857,
    "ELEMENT_SET_NO": 999,
    "REV_AT_EPOCH": 12253,
    "BSTAR": 7.0628e-06,
    "MEAN_MOTION_DOT": -1.5e-06,
    "MEAN_MOTION_DDOT": 0.0,
    "TLE_LINE1": "1 57857U 23141T   25315.11180159 -.00000150  00000+0  70628-5 0  9999",
    "TLE_LINE2": "2 57857  53.1604  88.9047 0001725  87.7041 272.4157 15.30192453122535",
    "COMMENT": "Grouped by shell and plane from TLE"
  },
  {
    "OBJECT_NAME": "STARLINK-31304",
    "OBJECT_ID": "24049A",
    "EPOCH": "2025-11-10T15:26:50.346528",
    "MEAN_MOTION": 15.27583841,
    "ECCENTRICITY": 0.0001365,
    "INCLINATION": 43.0016,
    "RA_OF_ASC_NODE": 85.1236,
    "ARG_OF_PERICENTER": 274.0455,
    "MEAN_ANOMALY": 86.024,
    "EPHEMERIS_TYPE": 0,
    "CLASSIFICATION_TYPE": "U",
    "NORAD_CAT_ID": 59231,
    "ELEMENT_SET_NO": 999,
    "REV_AT_EPOCH": 9431,
    "BSTAR": 0.00011397000000000001,
    "MEAN_MOTION_DOT": 2.876e-05,
    "MEAN_MOTION_DDOT": 0.0,
    "TLE_LINE1": "1 59231U 24049A   25314.64363827  .00002876  00000+0  11397-3 0  9999",
    "TLE_LINE2": "2 59231  43.0016  85.1236 0001365 274.0455  86.0240 15.27583841 94314",
    "COMMENT": "Grouped by shell and plane from TLE"
  },
  {
    "OBJECT_NAME": "STARLINK-31438",
    "OBJECT_ID": "24049D",
    "EPOCH": "2025-11-11T01:56:19.223520",
    "MEAN_MOTION": 15.2758449,
    "ECCENTRICITY": 0.0001551,
    "INCLINATION": 43.0036,
    "RA_OF_ASC_NODE": 82.365,
    "ARG_OF_PERICENTER": 276.1807,
    "MEAN_ANOMALY": 83.8868,
    "EPHEMERIS_TYPE": 0,
    "CLASSIFICATION_TYPE": "U",
    "NORAD_CAT_ID": 59234,
    "ELEMENT_SET_NO": 999,
    "REV_AT_EPOCH": 9438,
    "BSTAR": 5.587e-05,
    "MEAN_MOTION_DOT": 1.276e-05,
    "MEAN_MOTION_DDOT": 0.0,
    "TLE_LINE1": "1 59234U 24049D   25315.08077805  .00001276  00000+0  55870-4 0  9997",
    "TLE_LINE2": "2 59234  43.0036  82.3650 0001551 276.1807  83.8868 15.27584490 94388",
    "COMMENT": "Grouped by shell and plane from TLE"
  },
  {
    "OBJECT_NAME": "STARLINK-31303",
    "OBJECT_ID": "24049J",
    "EPOCH": "2025-11-10T15:21:16.297344",
    "MEAN_MOTION": 15.2757891,
    "ECCENTRICITY": 0.0001529,
    "INCLINATION": 43.0,
    "RA_OF_ASC_NODE": 85.014,
    "ARG_OF_PERICENTER": 268.6703,
    "MEAN_ANOMALY": 91.3974,
    "EPHEMERIS_TYPE": 0,
    "CLASSIFICATION_TYPE": "U",
    "NORAD_CAT_ID": 59239,
    "ELEMENT_SET_NO": 999,
    "REV_AT_EPOCH": 9432,
    "BSTAR": 4.1973e-05,
    "MEAN_MOTION_DOT": 8.93e-06,
    "MEAN_MOTION_DDOT": 0.0,
    "TLE_LINE1": "1 59239U 24049J   25314.63977196  .00000893  00000+0  41973-4 0  9997",
    "TLE_LINE2": "2 59239  43.0000  85.0140 0001529 268.6703  91.3974 15.27578910 94320",
    "COMMENT": "Grouped by shell and plane from TLE"
  },
  {
    "OBJECT_NAME": "STARLINK-31268",
    "OBJECT_ID": "24049Q",
    "EPOCH": "2025-11-11T02:22:40.639872",
    "MEAN_MOTION": 15.275783,
    "ECCENTRICITY": 8.06e-05,
    "INCLINATION": 43.0035,
    "RA_OF_ASC_NODE": 89.3449,
    "ARG_OF_PERICENTER": 261.9717,
    "MEAN_ANOMALY": 98.1044,
    "EPHEMERIS_TYPE": 0,
    "CLASSIFICATION_TYPE": "U",
    "NORAD_CAT_ID": 59245,
    "ELEMENT_SET_NO": 999,
    "REV_AT_EPOCH": 9430,
    "BSTAR": 3.4775000000000005e-05,
    "MEAN_MOTION_DOT": 6.95e-06,
    "MEAN_MOTION_DDOT": 0.0,
    "TLE_LINE1": "1 59245U 24049Q   25315.09908148  .00000695  00000+0  34775-4 0  9998",
    "TLE_LINE2": "2 59245  43.0035  89.3449 0000806 261.9717  98.1044 15.27578300 94306",
    "COMMENT": "Grouped by shell and plane from TLE"
  },
  {
    "OBJECT_NAME": "STARLINK-31407",
    "OBJECT_ID": "24049V",
    "EPOCH": "2025-11-11T07:48:53.935200",
    "MEAN_MOTION": 15.27579412,
    "ECCENTRICITY": 0.0001354,
    "INCLINATION": 43.0043,
    "RA_OF_ASC_NODE": 80.762,
    "ARG_OF_PERICENTER": 278.7802,
    "MEAN_ANOMALY": 81.2896,
    "EPHEMERIS_TYPE": 0,
    "CLASSIFICATION_TYPE": "U",
    "NORAD_CAT_ID": 59250,
    "ELEMENT_SET_NO": 999,
    "REV_AT_EPOCH": 9442,
    "BSTAR": 3.8487e-05,
    "MEAN_MOTION_DOT": 7.97e-06,
    "MEAN_MOTION_DDOT": 0.0,
    "TLE_LINE1": "1 59250U 24049V   25315.32562425  .00000797  00000+0  38487-4 0  9991",
    "TLE_LINE2": "2 59250  43.0043  80.7620 0001354 278.7802  81.2896 15.27579412 94423",
    "COMMENT": "Grouped by shell and plane from TLE"
  },
  {
    "OBJECT_NAME": "STARLINK-31402",
    "OBJECT_ID": "24057A",
    "EPOCH": "2025-11-11T05:32:48.217632",
    "MEAN_MOTION": 15.27572716,
    "ECCENTRICITY": 0.0001807,
    "INCLINATION": 43.0031,
    "RA_OF_ASC_NODE": 88.4521,
    "ARG_OF_PERICENTER": 268.1327,
    "MEAN_ANOMALY": 91.9318,
    "EPHEMERIS_TYPE": 0,
    "CLASSIFICATION_TYPE": "U",
    "NORAD_CAT_ID": 59320,
    "ELEMENT_SET_NO": 999,
    "REV_AT_EPOCH": 9225,
    "BSTAR": 0.00029211,
    "MEAN_MOTION_DOT": 7.783e-05,
    "MEAN_MOTION_DDOT": 0.0,
    "TLE_LINE1": "1 59320U 24057A   25315.23111363  .00007783  00000+0  29211-3 0  9995",
    "TLE_LINE2": "2 59320  43.0031  88.4521 0001807 268.1327  91.9318 15.27572716 92257",
    "COMMENT": "Grouped by shell and plane from TLE"
  },
  {
    "OBJECT_NAME": "STARLINK-31641",
    "OBJECT_ID": "24062A",
    "EPOCH": "2025-11-11T02:13:48.668160",
    "MEAN_MOTION": 15.30134833,
    "ECCENTRICITY": 0.0001668,
    "INCLINATION": 53.1606,
    "RA_OF_ASC_NODE": 89.3836,
    "ARG_OF_PERICENTER": 81.6324,
    "MEAN_ANOMALY": 278.4866,
    "EPHEMERIS_TYPE": 0,
    "CLASSIFICATION_TYPE": "U",
    "NORAD_CAT_ID": 59374,
    "ELEMENT_SET_NO": 999,
    "REV_AT_EPOCH": 9146,
    "BSTAR": 0.00053331,
    "MEAN_MOTION_DOT": 0.00015437,
    "MEAN_MOTION_DDOT": 0.0,
    "TLE_LINE1": "1 59374U 24062A   25315.09292440  .00015437  00000+0  53331-3 0  9995",
    "TLE_LINE2": "2 59374  53.1606  89.3836 0001668  81.6324 278.4866 15.30134833 91465",
    "COMMENT": "Grouped by shell and plane from TLE"
  },
  {
    "OBJECT_NAME": "STARLINK-31695",
    "OBJECT_ID": "24062C",
    "EPOCH": "2025-11-11T02:14:21.702336",
    "MEAN_MOTION": 15.30194167,
    "ECCENTRICITY": 0.0001374,
    "INCLINATION": 53.161,
    "RA_OF_ASC_NODE": 86.5424,
    "ARG_OF_PERICENTER": 77.0009,
    "MEAN_ANOMALY": 283.1146,
    "EPHEMERIS_TYPE": 0,
    "CLASSIFICATION_TYPE": "U",
    "NORAD_CAT_ID": 59376,
    "ELEMENT_SET_NO": 999,
    "REV_AT_EPOCH": 9147,
    "BSTAR": 0.0,
    "MEAN_MOTION_DOT": -8.48e-06,
    "MEAN_MOTION_DDOT": 0.0,
    "TLE_LINE1": "1 59376U 24062C   25315.09330674 -.00000848  00000+0 -16510-4 0  9990",
    "TLE_LINE2": "2 59376  53.1610  86.5424 0001374  77.0009 283.1146 15.30194167 91478",
    "COMMENT": "Grouped by shell and plane from TLE"
  },
  {
    "OBJECT_NAME": "STARLINK-31710",
    "OBJECT_ID": "24062E",
    "EPOCH": "2025-11-10T18:39:17.863776",
    "MEAN_MOTION": 15.30197605,
    "ECCENTRICITY": 0.0001052,
    "INCLINATION": 53.1607,
    "RA_OF_ASC_NODE": 88.1215,
    "ARG_OF_PERICENTER": 91.4788,
    "MEAN_ANOMALY": 268.6334,
    "EPHEMERIS_TYPE": 0,
    "CLASSIFICATION_TYPE": "U",
    "NORAD_CAT_ID": 59378,
    "ELEMENT_SET_NO": 999,
    "REV_AT_EPOCH": 9142,
    "BSTAR": 0.00034514,
    "MEAN_MOTION_DOT": 9.876e-05,
    "MEAN_MOTION_DDOT": 0.0,
    "TLE_LINE1": "1 59378U 24062E   25314.77729009  .00009876  00000+0  34514-3 0  9991",
    "TLE_LINE2": "2 59378  53.1607  88.1215 0001052  91.4788 268.6334 15.30197605 91421",
    "COMMENT": "Grouped by shell and plane from TLE"
  },
  {
    "OBJECT_NAME": "STARLINK-31698",
    "OBJECT_ID": "24062F",
    "EPOCH": "2025-11-11T02:09:48.895200",
    "MEAN_MOTION": 15.3019149,
    "ECCENTRICITY": 0.0001647,
    "INCLINATION": 53.161,
    "RA_OF_ASC_NODE": 86.5351,
    "ARG_OF_PERICENTER": 90.4122,
    "MEAN_ANOMALY": 269.7067,
    "EPHEMERIS_TYPE": 0,
    "CLASSIFICATION_TYPE": "U",
    "NORAD_CAT_ID": 59379,
    "ELEMENT_SET_NO": 999,
    "REV_AT_EPOCH": 9147,
    "BSTAR": 4.0105e-05,
    "MEAN_MOTION_DOT": 8.28e-06,
    "MEAN_MOTION_DDOT": 0.0,
    "TLE_LINE1": "1 59379U 24062F   25315.09014925  .00000828  00000+0  40105-4 0  9994",
    "TLE_LINE2": "2 59379  53.1610  86.5351 0001647  90.4122 269.7067 15.30191490 91476",
    "COMMENT": "Grouped by shell and plane from TLE"
  },
  {
    "OBJECT_NAME": "STARLINK-31680",
    "OBJECT_ID": "24062G",
    "EPOCH": "2025-11-11T02:12:14.984640",
    "MEAN_MOTION": 15.30192738,
    "ECCENTRICITY": 2.52e-05,
    "INCLINATION": 53.1583,
    "RA_OF_ASC_NODE": 89.3733,
    "ARG_OF_PERICENTER": 91.2157,
    "MEAN_ANOMALY": 268.8872,
    "EPHEMERIS_TYPE": 0,
    "CLASSIFICATION_TYPE": "U",
    "NORAD_CAT_ID": 59380,
    "ELEMENT_SET_NO": 999,
    "REV_AT_EPOCH": 9143,
    "BSTAR": 2.1536000000000002e-05,
    "MEAN_MOTION_DOT": 2.79e-06,
    "MEAN_MOTION_DDOT": 0.0,
    "TLE_LINE1": "1 59380U 24062G   25315.09184010  .00000279  00000+0  21536-4 0  9996",
    "TLE_LINE2": "2 59380  53.1583  89.3733 0000252  91.2157 268.8872 15.30192738 91436",
    "COMMENT": "Grouped by shell and plane from TLE"
  }
]